
# Worst residual: 11.80 km
# MJD 57848.000000 (2017 Apr  5  0:00)
1972-073A = IMP-7 = NORAD 06197
1 06197U 72073A   17095.49919926  .00000000  00000-0  00000-0 0    06
2 06197 058.4313 014.5063 1699019 352.0882 236.2606 00.08239974    08

# Worst residual: 25.90 km
# MJD 57849.000000 (2017 Apr  6  0:00)
1972-073A = IMP-7 = NORAD 06197
1 06197U 72073A   17096.49919926  .00000000  00000-0  00000-0 0    07
2 06197 058.4248 014.4549 1703097 351.0527 267.1336 00.08204682    01

# Worst residual: 45.86 km
# MJD 57850.000000 (2017 Apr  7  0:00)
1972-073A = IMP-7 = NORAD 06197
1 06197U 72073A   17097.49919926  .00000000  00000-0  00000-0 0    08
2 06197 058.4274 014.4349 1741880 349.2957 298.7326 00.08126490    05

# Worst residual: 65.37 km
# MJD 57851.000000 (2017 Apr  8  0:00)
1972-073A = IMP-7 = NORAD 06197
1 06197U 72073A   17098.49919926  .00000000  00000-0  00000-0 0    09
2 06197 058.4066 014.4428 1837851 348.0872 329.6109 00.07990671    01

# Worst residual: 75.73 km
# MJD 57852.000000 (2017 Apr  9  0:00)
1972-073A = IMP-7 = NORAD 06197
1 06197U 72073A   17099.49919926  .00000000  00000-0  00000-0 0    00
2 06197 058.3597 014.4287 1942719 349.6911 357.3740 00.07850242    01

# Worst residual: 74.93 km
# MJD 57853.000000 (2017 Apr 10  0:00)
1972-073A = IMP-7 = NORAD 06197
1 06197U 72073A   17100.49919926  .00000000  00000-0  00000-0 0    03
2 06197 058.3491 014.3767 1928456 352.9752 023.3009 00.07840464    01

# Worst residual: 67.33 km
# MJD 57854.000000 (2017 Apr 11  0:00)
1972-073A = IMP-7 = NORAD 06197
1 06197U 72073A   17101.49919926  .00000000  00000-0  00000-0 0    04
2 06197 058.3849 014.3459 1816618 353.6466 052.0476 00.07963799    06

# Worst residual: 54.75 km
# MJD 57855.000000 (2017 Apr 12  0:00)
1972-073A = IMP-7 = NORAD 06197
1 06197U 72073A   17102.49919926  .00000000  00000-0  00000-0 0    05
2 06197 058.4123 014.3421 1730373 351.5670 083.9120 00.08095299    09

# Worst residual: 40.95 km
# MJD 57856.000000 (2017 Apr 13  0:00)
1972-073A = IMP-7 = NORAD 06197
1 06197U 72073A   17103.49919926  .00000000  00000-0  00000-0 0    06
2 06197 058.4197 014.3290 1695902 349.1108 116.4071 00.08179309    03

# Worst residual: 27.67 km
# MJD 57857.000000 (2017 Apr 14  0:00)
1972-073A = IMP-7 = NORAD 06197
1 06197U 72073A   17104.49919926  .00000000  00000-0  00000-0 0    07
2 06197 058.4243 014.2942 1687858 347.4028 148.2048 00.08217966    00

# Worst residual: 17.29 km
# MJD 57858.000000 (2017 Apr 15  0:00)
1972-073A = IMP-7 = NORAD 06197
1 06197U 72073A   17105.49919926  .00000000  00000-0  00000-0 0    08
2 06197 058.4365 014.2486 1687809 346.4197 179.1780 00.08228871    03

# Worst residual: 10.98 km
# MJD 57859.000000 (2017 Apr 16  0:00)
1972-073A = IMP-7 = NORAD 06197
1 06197U 72073A   17106.49919926  .00000000  00000-0  00000-0 0    09
2 06197 058.4532 014.2043 1691108 345.8867 209.5645 00.08228916    00

# Worst residual: 10.27 km
# MJD 57860.000000 (2017 Apr 17  0:00)
1972-073A = IMP-7 = NORAD 06197
1 06197U 72073A   17107.49919926  .00000000  00000-0  00000-0 0    00
2 06197 058.4664 014.1634 1698102 345.5930 239.6371 00.08226753    07

# Worst residual: 15.90 km
# MJD 57861.000000 (2017 Apr 18  0:00)
1972-073A = IMP-7 = NORAD 06197
1 06197U 72073A   17108.49919926  .00000000  00000-0  00000-0 0    01
2 06197 058.4706 014.1187 1710187 345.2779 269.7451 00.08217413    09

# Worst residual: 26.43 km
# MJD 57862.000000 (2017 Apr 19  0:00)
1972-073A = IMP-7 = NORAD 06197
1 06197U 72073A   17109.49919926  .00000000  00000-0  00000-0 0    02
2 06197 058.4679 014.0545 1736101 344.6185 300.2203 00.08181567    09

# Worst residual: 34.28 km
# MJD 57863.000000 (2017 Apr 20  0:00)
1972-073A = IMP-7 = NORAD 06197
1 06197U 72073A   17110.49919926  .00000000  00000-0  00000-0 0    04
2 06197 058.4775 013.9586 1790333 343.9588 330.5807 00.08105280    09

# Worst residual: 38.19 km
# MJD 57864.000000 (2017 Apr 21  0:00)
1972-073A = IMP-7 = NORAD 06197
1 06197U 72073A   17111.49919926  .00000000  00000-0  00000-0 0    05
2 06197 058.5158 013.8711 1841490 344.7411 359.2760 00.08036204    04

# Worst residual: 48.68 km
# MJD 57865.000000 (2017 Apr 22  0:00)
1972-073A = IMP-7 = NORAD 06197
1 06197U 72073A   17112.49919926  .00000000  00000-0  00000-0 0    06
2 06197 058.5360 013.8216 1821911 346.6784 026.8456 00.08041714    00

# Worst residual: 49.25 km
# MJD 57866.000000 (2017 Apr 23  0:00)
1972-073A = IMP-7 = NORAD 06197
1 06197U 72073A   17113.49919926  .00000000  00000-0  00000-0 0    07
2 06197 058.5452 013.7729 1751440 347.7314 055.5473 00.08095358    01

# Worst residual: 42.03 km
# MJD 57867.000000 (2017 Apr 24  0:00)
1972-073A = IMP-7 = NORAD 06197
1 06197U 72073A   17114.49919926  .00000000  00000-0  00000-0 0    08
2 06197 058.5601 013.7469 1684792 347.4276 085.7882 00.08147038    09

# Worst residual: 31.22 km
# MJD 57868.000000 (2017 Apr 25  0:00)
1972-073A = IMP-7 = NORAD 06197
1 06197U 72073A   17115.49919926  .00000000  00000-0  00000-0 0    09
2 06197 058.5595 013.7449 1640275 346.6612 116.5106 00.08171201    03

# Worst residual: 19.03 km
# MJD 57869.000000 (2017 Apr 26  0:00)
1972-073A = IMP-7 = NORAD 06197
1 06197U 72073A   17116.49919926  .00000000  00000-0  00000-0 0    00
2 06197 058.5392 013.7393 1610314 346.1106 146.8608 00.08167567    03

# Worst residual: 8.55 km
# MJD 57870.000000 (2017 Apr 27  0:00)
1972-073A = IMP-7 = NORAD 06197
1 06197U 72073A   17117.49919926  .00000000  00000-0  00000-0 0    01
2 06197 058.5136 013.7139 1587082 345.9314 176.5629 00.08149074    06

# Worst residual: 9.28 km
# MJD 57871.000000 (2017 Apr 28  0:00)
1972-073A = IMP-7 = NORAD 06197
1 06197U 72073A   17118.49919926  .00000000  00000-0  00000-0 0    02
2 06197 058.4940 013.6719 1568230 346.1057 205.6201 00.08131582    07

# Worst residual: 13.60 km
# MJD 57872.000000 (2017 Apr 29  0:00)
1972-073A = IMP-7 = NORAD 06197
1 06197U 72073A   17119.49919926  .00000000  00000-0  00000-0 0    03
2 06197 058.4825 013.6214 1551972 346.6014 234.1630 00.08126129    06

# Worst residual: 13.09 km
# MJD 57873.000000 (2017 Apr 30  0:00)
1972-073A = IMP-7 = NORAD 06197
1 06197U 72073A   17120.49919926  .00000000  00000-0  00000-0 0    05
2 06197 058.4797 013.5693 1535131 347.2199 262.5505 00.08132774    03

# Worst residual: 7.11 km
# MJD 57874.000000 (2017 May  1  0:00)
1972-073A = IMP-7 = NORAD 06197
1 06197U 72073A   17121.49919926  .00000000  00000-0  00000-0 0    06
2 06197 058.4854 013.5277 1520367 347.4602 291.4097 00.08137217    05
